[{"OBJECT_NAME":"BANDWAGON-2 OBJECT D","OBJECT_ID":"2024-247D","EPOCH":"2026-03-09T12:32:33.670752","MEAN_MOTION":15.29076102,"ECCENTRICITY":0.00034883,"INCLINATION":44.9954,"RA_OF_ASC_NODE":115.671,"ARG_OF_PERICENTER":351.1453,"MEAN_ANOMALY":8.9368,"EPHEMERIS_TYPE":0,"CLASSIFICATION_TYPE":"U","NORAD_CAT_ID":62380,"ELEMENT_SET_NO":999,"REV_AT_EPOCH":6773,"BSTAR":0.00040119131,"MEAN_MOTION_DOT":0.00011259,"MEAN_MOTION_DDOT":0},{"OBJECT_NAME":"STARLINK-35438","OBJECT_ID":"2025-253AE","EPOCH":"2026-03-09T11:09:43.648992","MEAN_MOTION":15.27582677,"ECCENTRICITY":0.00016957,"INCLINATION":43.0014,"RA_OF_ASC_NODE":213.4659,"ARG_OF_PERICENTER":255.7018,"MEAN_ANOMALY":104.3646,"EPHEMERIS_TYPE":0,"CLASSIFICATION_TYPE":"U","NORAD_CAT_ID":66347,"ELEMENT_SET_NO":999,"REV_AT_EPOCH":2021,"BSTAR":0.00063053556,"MEAN_MOTION_DOT":0.00017131,"MEAN_MOTION_DDOT":0}]
